start=new Date('2023-02-21T00:00:00.000Z').valueOf();
sats=[{"PERIOD":"95.592","MEAN_MOTION_DOT":"0.00032010","SITE":"AFETR","COUNTRY_CODE":"US","CLASSIFICATION_TYPE":"U","MEAN_MOTION_DDOT":"0.0000000000000","SEMIMAJOR_AXIS":"6925.321","APOAPSIS":"548.205","FILE":"3815761","REF_FRAME":"TEME","MEAN_MOTION":"15.06408976","OBJECT_NAME":"STARLINK-1989","OBJECT_ID":"2021-009AP","MEAN_ANOMALY":"261.3615","BSTAR":"0.00215760000000","RA_OF_ASC_NODE":"338.8082","TLE_LINE2":"2 47585  53.0542 338.8082 0001471  98.7540 261.3615 15.06408976113014","ARG_OF_PERICENTER":"98.7540","DECAY_DATE":null,"LAUNCH_DATE":"2021-02-04","CENTER_NAME":"EARTH","TIME_SYSTEM":"UTC","TLE_LINE1":"1 47585U 21009AP  23051.52412749  .00032010  00000-0  21576-2 0  9995","PERIAPSIS":"546.167","INCLINATION":"53.0542","RCS_SIZE":"LARGE","MEAN_ELEMENT_THEORY":"SGP4","NORAD_CAT_ID":"47585","OBJECT_TYPE":"PAYLOAD","GP_ID":"226155798","EPOCH":"2023-02-20T12:34:44.615136","ECCENTRICITY":"0.00014710","REV_AT_EPOCH":"11301","ELEMENT_SET_NO":"999","EPHEMERIS_TYPE":"0"},{"BSTAR":"0.00179100000000","MEAN_ANOMALY":"242.3524","OBJECT_ID":"2021-009AQ","OBJECT_NAME":"STARLINK-1990","MEAN_MOTION":"15.06450717","FILE":"3816835","REF_FRAME":"TEME","APOAPSIS":"548.161","MEAN_MOTION_DDOT":"0.0000000000000","CLASSIFICATION_TYPE":"U","SEMIMAJOR_AXIS":"6925.193","COUNTRY_CODE":"US","SITE":"AFETR","MEAN_MOTION_DOT":"0.00026533","PERIOD":"95.589","ELEMENT_SET_NO":"999","EPHEMERIS_TYPE":"0","REV_AT_EPOCH":"11339","EPOCH":"2023-02-20T21:44:06.126144","ECCENTRICITY":"0.00015920","GP_ID":"226182414","OBJECT_TYPE":"PAYLOAD","MEAN_ELEMENT_THEORY":"SGP4","NORAD_CAT_ID":"47586","PERIAPSIS":"545.956","INCLINATION":"53.0542","RCS_SIZE":"LARGE","TLE_LINE1":"1 47586U 21009AQ  23051.90562646  .00026533  00000-0  17910-2 0  9990","LAUNCH_DATE":"2021-02-04","CENTER_NAME":"EARTH","TIME_SYSTEM":"UTC","DECAY_DATE":null,"ARG_OF_PERICENTER":"117.7626","TLE_LINE2":"2 47586  53.0542 357.1053 0001592 117.7626 242.3524 15.06450717113397","RA_OF_ASC_NODE":"357.1053"},{"BSTAR":"0.00208880000000","OBJECT_ID":"2021-009AR","MEAN_ANOMALY":"244.0442","OBJECT_NAME":"STARLINK-1991","MEAN_MOTION":"15.06407626","FILE":"3815761","REF_FRAME":"TEME","APOAPSIS":"548.212","CLASSIFICATION_TYPE":"U","MEAN_MOTION_DDOT":"0.0000000000000","SEMIMAJOR_AXIS":"6925.325","COUNTRY_CODE":"US","SITE":"AFETR","MEAN_MOTION_DOT":"0.00030975","PERIOD":"95.592","ELEMENT_SET_NO":"999","EPHEMERIS_TYPE":"0","REV_AT_EPOCH":"11315","EPOCH":"2023-02-20T12:04:12.749376","ECCENTRICITY":"0.00014760","GP_ID":"226156299","OBJECT_TYPE":"PAYLOAD","NORAD_CAT_ID":"47587","MEAN_ELEMENT_THEORY":"SGP4","INCLINATION":"53.0546","PERIAPSIS":"546.168","RCS_SIZE":"LARGE","TLE_LINE1":"1 47587U 21009AR  23051.50292534  .00030975  00000-0  20888-2 0  9996","LAUNCH_DATE":"2021-02-04","CENTER_NAME":"EARTH","TIME_SYSTEM":"UTC","DECAY_DATE":null,"ARG_OF_PERICENTER":"116.0699","TLE_LINE2":"2 47587  53.0546 328.9131 0001476 116.0699 244.0442 15.06407626113151","RA_OF_ASC_NODE":"328.9131"},{"TLE_LINE1":"1 47588U 21009AS  23051.49462424  .00028092  00000-0  18965-2 0  9992","CENTER_NAME":"EARTH","LAUNCH_DATE":"2021-02-04","TIME_SYSTEM":"UTC","INCLINATION":"53.0559","PERIAPSIS":"546.652","RCS_SIZE":"LARGE","TLE_LINE2":"2 47588  53.0559 338.9449 0000741  76.9736 283.1336 15.06415769113017","RA_OF_ASC_NODE":"338.9449","DECAY_DATE":null,"ARG_OF_PERICENTER":"76.9736","EPOCH":"2023-02-20T11:52:15.534336","ECCENTRICITY":"0.00007410","ELEMENT_SET_NO":"999","EPHEMERIS_TYPE":"0","REV_AT_EPOCH":"11301","NORAD_CAT_ID":"47588","MEAN_ELEMENT_THEORY":"SGP4","GP_ID":"226156550","OBJECT_TYPE":"PAYLOAD","APOAPSIS":"547.678","MEAN_MOTION_DDOT":"0.0000000000000","CLASSIFICATION_TYPE":"U","SEMIMAJOR_AXIS":"6925.300","SITE":"AFETR","COUNTRY_CODE":"US","PERIOD":"95.591","MEAN_MOTION_DOT":"0.00028092","OBJECT_NAME":"STARLINK-1993","BSTAR":"0.00189650000000","MEAN_ANOMALY":"283.1336","OBJECT_ID":"2021-009AS","FILE":"3815761","REF_FRAME":"TEME","MEAN_MOTION":"15.06415769"},{"MEAN_MOTION_DDOT":"0.0000000000000","CLASSIFICATION_TYPE":"U","SEMIMAJOR_AXIS":"6925.239","APOAPSIS":"548.246","PERIOD":"95.590","MEAN_MOTION_DOT":"0.00026247","SITE":"AFETR","COUNTRY_CODE":"US","OBJECT_ID":"2021-009AT","MEAN_ANOMALY":"244.0123","BSTAR":"0.00177270000000","OBJECT_NAME":"STARLINK-1994","MEAN_MOTION":"15.06435909","FILE":"3816834","REF_FRAME":"TEME","INCLINATION":"53.0532","PERIAPSIS":"545.961","RCS_SIZE":"LARGE","LAUNCH_DATE":"2021-02-04","CENTER_NAME":"EARTH","TIME_SYSTEM":"UTC","TLE_LINE1":"1 47589U 21009AT  23051.97752648  .00026247  00000-0  17727-2 0  9991","ARG_OF_PERICENTER":"116.1035","DECAY_DATE":null,"RA_OF_ASC_NODE":"336.7851","TLE_LINE2":"2 47589  53.0532 336.7851 0001650 116.1035 244.0123 15.06435909113682","REV_AT_EPOCH":"11368","ELEMENT_SET_NO":"999","EPHEMERIS_TYPE":"0","EPOCH":"2023-02-20T23:27:38.287872","ECCENTRICITY":"0.00016500","GP_ID":"226182391","OBJECT_TYPE":"PAYLOAD","MEAN_ELEMENT_THEORY":"SGP4","NORAD_CAT_ID":"47589"},{"FILE":"3816835","REF_FRAME":"TEME","MEAN_MOTION":"15.06442285","OBJECT_NAME":"STARLINK-1995","OBJECT_ID":"2021-009AU","MEAN_ANOMALY":"248.8162","BSTAR":"0.00164800000000","PERIOD":"95.589","MEAN_MOTION_DOT":"0.00024379","SITE":"AFETR","COUNTRY_CODE":"US","MEAN_MOTION_DDOT":"0.0000000000000","CLASSIFICATION_TYPE":"U","SEMIMAJOR_AXIS":"6925.219","APOAPSIS":"548.156","MEAN_ELEMENT_THEORY":"SGP4","NORAD_CAT_ID":"47590","OBJECT_TYPE":"PAYLOAD","GP_ID":"226182408","EPOCH":"2023-02-20T20:03:15.541920","ECCENTRICITY":"0.00015480","REV_AT_EPOCH":"11338","ELEMENT_SET_NO":"999","EPHEMERIS_TYPE":"0","RA_OF_ASC_NODE":"357.4214","TLE_LINE2":"2 47590  53.0544 357.4214 0001548 111.2992 248.8162 15.06442285113381","ARG_OF_PERICENTER":"111.2992","DECAY_DATE":null,"CENTER_NAME":"EARTH","LAUNCH_DATE":"2021-02-04","TIME_SYSTEM":"UTC","TLE_LINE1":"1 47590U 21009AU  23051.83559655  .00024379  00000-0  16480-2 0  9990","PERIAPSIS":"546.012","INCLINATION":"53.0544","RCS_SIZE":"LARGE"},{"OBJECT_TYPE":"PAYLOAD","GP_ID":"226182413","NORAD_CAT_ID":"47591","MEAN_ELEMENT_THEORY":"SGP4","REV_AT_EPOCH":"11368","ELEMENT_SET_NO":"999","EPHEMERIS_TYPE":"0","EPOCH":"2023-02-20T23:22:16.460832","ECCENTRICITY":"0.00010140","ARG_OF_PERICENTER":"95.0089","DECAY_DATE":null,"RA_OF_ASC_NODE":"336.8001","TLE_LINE2":"2 47591  53.0542 336.8001 0001014  95.0089 265.1016 15.06436715113683","INCLINATION":"53.0542","PERIAPSIS":"546.399","RCS_SIZE":"LARGE","CENTER_NAME":"EARTH","LAUNCH_DATE":"2021-02-04","TIME_SYSTEM":"UTC","TLE_LINE1":"1 47591U 21009AV  23051.97380163  .00030444  00000-0  20519-2 0  9990","MEAN_MOTION":"15.06436715","FILE":"3816835","REF_FRAME":"TEME","OBJECT_ID":"2021-009AV","MEAN_ANOMALY":"265.1016","BSTAR":"0.00205190000000","OBJECT_NAME":"STARLINK-1996","MEAN_MOTION_DOT":"0.00030444","PERIOD":"95.590","SITE":"AFETR","COUNTRY_CODE":"US","CLASSIFICATION_TYPE":"U","MEAN_MOTION_DDOT":"0.0000000000000","SEMIMAJOR_AXIS":"6925.236","APOAPSIS":"547.803"},{"MEAN_MOTION":"15.06391513","REF_FRAME":"TEME","FILE":"3815761","BSTAR":"0.00152790000000","MEAN_ANOMALY":"260.6144","OBJECT_ID":"2021-009AW","OBJECT_NAME":"STARLINK-1997","COUNTRY_CODE":"US","SITE":"AFETR","MEAN_MOTION_DOT":"0.00022544","PERIOD":"95.593","APOAPSIS":"547.861","SEMIMAJOR_AXIS":"6925.375","CLASSIFICATION_TYPE":"U","MEAN_MOTION_DDOT":"0.0000000000000","OBJECT_TYPE":"PAYLOAD","GP_ID":"226157051","MEAN_ELEMENT_THEORY":"SGP4","NORAD_CAT_ID":"47592","EPHEMERIS_TYPE":"0","ELEMENT_SET_NO":"999","REV_AT_EPOCH":"11273","ECCENTRICITY":"0.00008980","EPOCH":"2023-02-20T12:58:36.461856","DECAY_DATE":null,"ARG_OF_PERICENTER":"99.4947","TLE_LINE2":"2 47592  53.0565 358.7366 0000898  99.4947 260.6144 15.06391513112739","RA_OF_ASC_NODE":"358.7366","RCS_SIZE":"LARGE","INCLINATION":"53.0565","PERIAPSIS":"546.618","TLE_LINE1":"1 47592U 21009AW  23051.54069979  .00022544  00000-0  15279-2 0  9992","TIME_SYSTEM":"UTC","LAUNCH_DATE":"2021-02-04","CENTER_NAME":"EARTH"},{"OBJECT_TYPE":"PAYLOAD","GP_ID":"226182380","NORAD_CAT_ID":"47593","MEAN_ELEMENT_THEORY":"SGP4","ELEMENT_SET_NO":"999","EPHEMERIS_TYPE":"0","REV_AT_EPOCH":"11339","EPOCH":"2023-02-20T21:49:22.793376","ECCENTRICITY":"0.00015000","DECAY_DATE":null,"ARG_OF_PERICENTER":"100.2598","TLE_LINE2":"2 47593  53.0560 357.0820 0001500 100.2598 259.8560 15.06423071113396","RA_OF_ASC_NODE":"357.0820","PERIAPSIS":"546.104","INCLINATION":"53.0560","RCS_SIZE":"LARGE","TLE_LINE1":"1 47593U 21009AX  23051.90929159  .00031660  00000-0  21335-2 0  9997","LAUNCH_DATE":"2021-02-04","CENTER_NAME":"EARTH","TIME_SYSTEM":"UTC","MEAN_MOTION":"15.06423071","FILE":"3816834","REF_FRAME":"TEME","BSTAR":"0.00213350000000","MEAN_ANOMALY":"259.8560","OBJECT_ID":"2021-009AX","OBJECT_NAME":"STARLINK-1998","COUNTRY_CODE":"US","SITE":"AFETR","MEAN_MOTION_DOT":"0.00031660","PERIOD":"95.591","APOAPSIS":"548.182","MEAN_MOTION_DDOT":"0.0000000000000","CLASSIFICATION_TYPE":"U","SEMIMAJOR_AXIS":"6925.278"},{"OBJECT_TYPE":"PAYLOAD","GP_ID":"226182407","MEAN_ELEMENT_THEORY":"SGP4","NORAD_CAT_ID":"47594","ELEMENT_SET_NO":"999","EPHEMERIS_TYPE":"0","REV_AT_EPOCH":"11339","EPOCH":"2023-02-20T22:37:09.305184","ECCENTRICITY":"0.00010510","DECAY_DATE":null,"ARG_OF_PERICENTER":"107.6395","TLE_LINE2":"2 47594  53.0565 356.9317 0001051 107.6395 252.4709 15.06417322113394","RA_OF_ASC_NODE":"356.9317","PERIAPSIS":"546.433","INCLINATION":"53.0565","RCS_SIZE":"LARGE","TLE_LINE1":"1 47594U 21009AY  23051.94246881  .00011190  00000-0  76858-3 0  9993","CENTER_NAME":"EARTH","LAUNCH_DATE":"2021-02-04","TIME_SYSTEM":"UTC","MEAN_MOTION":"15.06417322","FILE":"3816835","REF_FRAME":"TEME","BSTAR":"0.00076858000000","OBJECT_ID":"2021-009AY","MEAN_ANOMALY":"252.4709","OBJECT_NAME":"STARLINK-1999","COUNTRY_CODE":"US","SITE":"AFETR","PERIOD":"95.591","MEAN_MOTION_DOT":"0.00011190","APOAPSIS":"547.888","MEAN_MOTION_DDOT":"0.0000000000000","CLASSIFICATION_TYPE":"U","SEMIMAJOR_AXIS":"6925.295"}];
